LEGION 1                
1 59625U 24081A   26192.17499920  .00002232  00000+0  11689-3 0  9999
2 59625  97.5013 269.7773 0007692 286.5207  73.5181 15.16827382121179
LEGION 2                
1 59626U 24081B   26192.20532609  .00002069  00000+0  10866-3 0  9990
2 59626  97.5013 269.9042 0010022 249.1017 110.9143 15.16806503121183
LEGION 3                
1 60452U 24146A   26192.18422708  .00002043  00000+0  11925-3 0  9995
2 60452  45.0013 261.8876 0008597 312.7802  47.2352 15.15639908105660
LEGION 4                
1 60453U 24146B   26191.92040611  .00002650  00000+0  15055-3 0  9998
2 60453  45.0025 355.1681 0008959  87.4344 272.7560 15.15659104104478
LEGION 5                
1 62900U 25025A   26191.98733631  .00001473  00000+0  88814-4 0  9997
2 62900  44.9999 173.7820 0008544 281.3744  78.6174 15.16056114 78100
LEGION 6                
1 62901U 25025B   26191.98551705  .00001857  00000+0  10954-3 0  9993
2 62901  45.0016  82.9268 0010784 255.0974 104.8711 15.15671893 79243
