{"fetched_at":"2026-07-11T09:24:28.598Z","source":"https://celestrak.org/NORAD/elements/gp.php?NAME=LEGION&FORMAT=JSON","constellation":"maxar-legion","records":[{"OBJECT_NAME":"LEGION 1","OBJECT_ID":"2024-081A","EPOCH":"2026-07-11T04:11:59.930880","CLASSIFICATION_TYPE":"U","MEAN_MOTION":15.16827382,"ECCENTRICITY":0.0007692,"INCLINATION":97.5013,"RA_OF_ASC_NODE":269.7773,"ARG_OF_PERICENTER":286.5207,"MEAN_ANOMALY":73.5181,"EPHEMERIS_TYPE":0,"NORAD_CAT_ID":59625,"ELEMENT_SET_NO":999,"REV_AT_EPOCH":12117,"BSTAR":0.00011689,"MEAN_MOTION_DOT":0.00002232,"MEAN_MOTION_DDOT":0},{"OBJECT_NAME":"LEGION 2","OBJECT_ID":"2024-081B","EPOCH":"2026-07-11T04:55:40.174176","CLASSIFICATION_TYPE":"U","MEAN_MOTION":15.16806503,"ECCENTRICITY":0.0010022,"INCLINATION":97.5013,"RA_OF_ASC_NODE":269.9042,"ARG_OF_PERICENTER":249.1017,"MEAN_ANOMALY":110.9143,"EPHEMERIS_TYPE":0,"NORAD_CAT_ID":59626,"ELEMENT_SET_NO":999,"REV_AT_EPOCH":12118,"BSTAR":0.00010866,"MEAN_MOTION_DOT":0.00002069,"MEAN_MOTION_DDOT":0},{"OBJECT_NAME":"LEGION 3","OBJECT_ID":"2024-146A","EPOCH":"2026-07-11T04:25:17.219712","CLASSIFICATION_TYPE":"U","MEAN_MOTION":15.15639908,"ECCENTRICITY":0.0008597,"INCLINATION":45.0013,"RA_OF_ASC_NODE":261.8876,"ARG_OF_PERICENTER":312.7802,"MEAN_ANOMALY":47.2352,"EPHEMERIS_TYPE":0,"NORAD_CAT_ID":60452,"ELEMENT_SET_NO":999,"REV_AT_EPOCH":10566,"BSTAR":0.00011925,"MEAN_MOTION_DOT":0.00002043,"MEAN_MOTION_DDOT":0},{"OBJECT_NAME":"LEGION 4","OBJECT_ID":"2024-146B","EPOCH":"2026-07-10T22:05:23.087904","CLASSIFICATION_TYPE":"U","MEAN_MOTION":15.15659104,"ECCENTRICITY":0.0008959,"INCLINATION":45.0025,"RA_OF_ASC_NODE":355.1681,"ARG_OF_PERICENTER":87.4344,"MEAN_ANOMALY":272.756,"EPHEMERIS_TYPE":0,"NORAD_CAT_ID":60453,"ELEMENT_SET_NO":999,"REV_AT_EPOCH":10447,"BSTAR":0.00015055,"MEAN_MOTION_DOT":0.0000265,"MEAN_MOTION_DDOT":0},{"OBJECT_NAME":"LEGION 5","OBJECT_ID":"2025-025A","EPOCH":"2026-07-10T23:41:45.857184","CLASSIFICATION_TYPE":"U","MEAN_MOTION":15.16056114,"ECCENTRICITY":0.0008544,"INCLINATION":44.9999,"RA_OF_ASC_NODE":173.782,"ARG_OF_PERICENTER":281.3744,"MEAN_ANOMALY":78.6174,"EPHEMERIS_TYPE":0,"NORAD_CAT_ID":62900,"ELEMENT_SET_NO":999,"REV_AT_EPOCH":7810,"BSTAR":0.000088814,"MEAN_MOTION_DOT":0.00001473,"MEAN_MOTION_DDOT":0},{"OBJECT_NAME":"LEGION 6","OBJECT_ID":"2025-025B","EPOCH":"2026-07-10T23:39:08.673120","CLASSIFICATION_TYPE":"U","MEAN_MOTION":15.15671893,"ECCENTRICITY":0.0010784,"INCLINATION":45.0016,"RA_OF_ASC_NODE":82.9268,"ARG_OF_PERICENTER":255.0974,"MEAN_ANOMALY":104.8711,"EPHEMERIS_TYPE":0,"NORAD_CAT_ID":62901,"ELEMENT_SET_NO":999,"REV_AT_EPOCH":7924,"BSTAR":0.00010954,"MEAN_MOTION_DOT":0.00001857,"MEAN_MOTION_DDOT":0}]}
